{
  "norad_id": 66388,
  "name": "STARLINK-35647",
  "history": [
    {
      "epoch": "2026-03-28T12:59:23.110080Z",
      "apogee_km": 476.05090824262516,
      "perigee_km": 474.3526508930481,
      "latitude_deg": 2.880288937716131e-05,
      "longitude_deg": 108.37912348274682,
      "height_km": 476.1206761311658,
      "semi_major_axis_km": 6853.338779567836,
      "eccentricity": 0.0001239,
      "inclination_deg": 53.1584,
      "raan_deg": 129.1856,
      "arg_perigee_deg": 91.414,
      "mean_anomaly_deg": 268.7003,
      "mean_motion_rev_day": 15.30204451
    },
    {
      "epoch": "2026-03-29T09:22:04.520640Z",
      "apogee_km": 476.0600090999178,
      "perigee_km": 474.355308149532,
      "latitude_deg": 6.088367898176644e-06,
      "longitude_deg": 157.92606089072063,
      "height_km": 476.05324923168973,
      "semi_major_axis_km": 6853.344658624725,
      "eccentricity": 0.00012437,
      "inclination_deg": 53.1575,
      "raan_deg": 125.242,
      "arg_perigee_deg": 86.4851,
      "mean_anomaly_deg": 273.6292,
      "mean_motion_rev_day": 15.30202482
    },
    {
      "epoch": "2026-03-30T08:52:52.693248Z",
      "apogee_km": 476.12622647345415,
      "perigee_km": 474.3157063658864,
      "latitude_deg": 1.2486028741293893e-05,
      "longitude_deg": 159.70828693900842,
      "height_km": 476.07209087221213,
      "semi_major_axis_km": 6853.35796641967,
      "eccentricity": 0.00013209,
      "inclination_deg": 53.1581,
      "raan_deg": 120.6906,
      "arg_perigee_deg": 87.0444,
      "mean_anomaly_deg": 273.0708,
      "mean_motion_rev_day": 15.30198025
    },
    {
      "epoch": "2026-03-31T11:31:46.983360Z",
      "apogee_km": 476.0990013237997,
      "perigee_km": 474.34070408967,
      "latitude_deg": -1.151408152155405e-05,
      "longitude_deg": 113.73055018772203,
      "height_km": 475.9560227933253,
      "semi_major_axis_km": 6853.356852706735,
      "eccentricity": 0.00012828,
      "inclination_deg": 53.1582,
      "raan_deg": 115.5335,
      "arg_perigee_deg": 79.3995,
      "mean_anomaly_deg": 280.715,
      "mean_motion_rev_day": 15.30198398
    },
    {
      "epoch": "2026-04-01T07:54:28.712736Z",
      "apogee_km": 476.15157637153334,
      "perigee_km": 474.31624364183244,
      "latitude_deg": 6.14849657142232e-05,
      "longitude_deg": 163.27512798968564,
      "height_km": 475.92764340200637,
      "semi_major_axis_km": 6853.370910006683,
      "eccentricity": 0.0001339,
      "inclination_deg": 53.1583,
      "raan_deg": 111.5888,
      "arg_perigee_deg": 77.1491,
      "mean_anomaly_deg": 282.966,
      "mean_motion_rev_day": 15.3019369
    },
    {
      "epoch": "2026-04-02T18:23:38.653440Z",
      "apogee_km": 476.16638910780966,
      "perigee_km": 474.19537488494643,
      "latitude_deg": 3.4425290626182725e-06,
      "longitude_deg": -2.110527076292849,
      "height_km": 476.2145060451444,
      "semi_major_axis_km": 6853.317881996378,
      "eccentricity": 0.0001438,
      "inclination_deg": 53.159,
      "raan_deg": 104.9109,
      "arg_perigee_deg": 97.9244,
      "mean_anomaly_deg": 262.192,
      "mean_motion_rev_day": 15.3021145
    },
    {
      "epoch": "2026-04-03T06:56:04.104960Z",
      "apogee_km": 476.2041089184804,
      "perigee_km": 474.09466736821014,
      "latitude_deg": 6.697220966535095e-06,
      "longitude_deg": 166.84461143088768,
      "height_km": 475.8499532071416,
      "semi_major_axis_km": 6853.286388143345,
      "eccentricity": 0.0001539,
      "inclination_deg": 53.1592,
      "raan_deg": 102.4871,
      "arg_perigee_deg": 79.2296,
      "mean_anomaly_deg": 280.8878,
      "mean_motion_rev_day": 15.30221998
    },
    {
      "epoch": "2026-04-04T06:26:52.920384Z",
      "apogee_km": 476.184749409731,
      "perigee_km": 474.26375225112315,
      "latitude_deg": -2.999671700646605e-05,
      "longitude_deg": 168.6245185939119,
      "height_km": 475.77519948507654,
      "semi_major_axis_km": 6853.361250830427,
      "eccentricity": 0.00014015,
      "inclination_deg": 53.1595,
      "raan_deg": 97.9361,
      "arg_perigee_deg": 68.8197,
      "mean_anomaly_deg": 291.2953,
      "mean_motion_rev_day": 15.30196925
    },
    {
      "epoch": "2026-04-05T05:57:40.553856Z",
      "apogee_km": 476.4552269164251,
      "perigee_km": 473.8235687796514,
      "latitude_deg": 3.466994318282758e-05,
      "longitude_deg": 170.40893872847408,
      "height_km": 475.8159636248941,
      "semi_major_axis_km": 6853.276397848038,
      "eccentricity": 0.000192,
      "inclination_deg": 53.1597,
      "raan_deg": 93.3846,
      "arg_perigee_deg": 80.3485,
      "mean_anomaly_deg": 279.7733,
      "mean_motion_rev_day": 15.30225344
    },
    {
      "epoch": "2026-04-06T05:28:28.449984Z",
      "apogee_km": 475.9918965088018,
      "perigee_km": 474.3964410127137,
      "latitude_deg": 1.980166501112508e-05,
      "longitude_deg": 172.19260143647557,
      "height_km": 475.9158049370317,
      "semi_major_axis_km": 6853.3311687607575,
      "eccentricity": 0.0001164,
      "inclination_deg": 53.1603,
      "raan_deg": 88.8335,
      "arg_perigee_deg": 77.2057,
      "mean_anomaly_deg": 282.9074,
      "mean_motion_rev_day": 15.30207
    },
    {
      "epoch": "2026-04-07T04:59:16.264896Z",
      "apogee_km": 475.89577335160357,
      "perigee_km": 474.441775998449,
      "latitude_deg": 5.708849732505264e-05,
      "longitude_deg": 173.9772417162427,
      "height_km": 476.0695279291262,
      "semi_major_axis_km": 6853.305774675026,
      "eccentricity": 0.00010608,
      "inclination_deg": 53.1604,
      "raan_deg": 84.283,
      "arg_perigee_deg": 90.1855,
      "mean_anomaly_deg": 269.9268,
      "mean_motion_rev_day": 15.30215505
    },
    {
      "epoch": "2026-04-08T15:28:26.629824Z",
      "apogee_km": 475.99418858444733,
      "perigee_km": 474.4086002135191,
      "latitude_deg": 2.269406295575535e-06,
      "longitude_deg": 8.591610940105863,
      "height_km": 475.9900800968671,
      "semi_major_axis_km": 6853.338394398983,
      "eccentricity": 0.00011568,
      "inclination_deg": 53.1591,
      "raan_deg": 77.6069,
      "arg_perigee_deg": 82.0635,
      "mean_anomaly_deg": 278.0497,
      "mean_motion_rev_day": 15.3020458
    },
    {
      "epoch": "2026-04-09T14:59:14.662464Z",
      "apogee_km": 476.0908666208452,
      "perigee_km": 474.32407441634496,
      "latitude_deg": -3.3296675980824364e-05,
      "longitude_deg": 10.376286868255002,
      "height_km": 476.11183490281,
      "semi_major_axis_km": 6853.344470518595,
      "eccentricity": 0.0001289,
      "inclination_deg": 53.1589,
      "raan_deg": 73.0574,
      "arg_perigee_deg": 90.4169,
      "mean_anomaly_deg": 269.6979,
      "mean_motion_rev_day": 15.30202545
    },
    {
      "epoch": "2026-04-10T08:13:49.718784Z",
      "apogee_km": 475.9617131862342,
      "perigee_km": 474.4526068022042,
      "latitude_deg": -4.532276333998649e-06,
      "longitude_deg": 107.68529061798112,
      "height_km": 475.9793419796103,
      "semi_major_axis_km": 6853.344159994219,
      "eccentricity": 0.0001101,
      "inclination_deg": 53.1578,
      "raan_deg": 69.7206,
      "arg_perigee_deg": 80.3942,
      "mean_anomaly_deg": 279.7183,
      "mean_motion_rev_day": 15.30202649
    },
    {
      "epoch": "2026-04-11T14:00:50.389056Z",
      "apogee_km": 475.945465402162,
      "perigee_km": 474.45554982800695,
      "latitude_deg": 3.154753546136128e-05,
      "longitude_deg": 13.944356541479177,
      "height_km": 475.9208216537609,
      "semi_major_axis_km": 6853.337507615084,
      "eccentricity": 0.0001087,
      "inclination_deg": 53.1578,
      "raan_deg": 63.9556,
      "arg_perigee_deg": 76.1906,
      "mean_anomaly_deg": 283.9216,
      "mean_motion_rev_day": 15.30204877
    },
    {
      "epoch": "2026-04-13T00:30:00.900864Z",
      "apogee_km": 475.8528033216544,
      "perigee_km": 474.55752165294325,
      "latitude_deg": 1.776453168967416e-05,
      "longitude_deg": -151.44065416959268,
      "height_km": 475.88845776207967,
      "semi_major_axis_km": 6853.342162487298,
      "eccentricity": 9.45e-05,
      "inclination_deg": 53.1574,
      "raan_deg": 57.2807,
      "arg_perigee_deg": 70.6102,
      "mean_anomaly_deg": 289.5001,
      "mean_motion_rev_day": 15.30203318
    },
    {
      "epoch": "2026-04-14T20:23:30.427008Z",
      "apogee_km": 475.99466168003346,
      "perigee_km": 474.3992055402887,
      "latitude_deg": 1.6169669031265654e-05,
      "longitude_deg": -100.11204039190739,
      "height_km": 476.1471337601599,
      "semi_major_axis_km": 6853.333933610161,
      "eccentricity": 0.0001164,
      "inclination_deg": 53.1573,
      "raan_deg": 48.7849,
      "arg_perigee_deg": 93.7568,
      "mean_anomaly_deg": 266.3566,
      "mean_motion_rev_day": 15.30206074
    },
    {
      "epoch": "2026-04-15T19:54:18.232416Z",
      "apogee_km": 476.5317131654765,
      "perigee_km": 473.843839188261,
      "latitude_deg": 1.7369469913937277e-05,
      "longitude_deg": -98.32878287806567,
      "height_km": 476.5639851991542,
      "semi_major_axis_km": 6853.324776176869,
      "eccentricity": 0.0001961,
      "inclination_deg": 53.1585,
      "raan_deg": 44.233,
      "arg_perigee_deg": 110.8846,
      "mean_anomaly_deg": 249.2365,
      "mean_motion_rev_day": 15.30209141
    },
    {
      "epoch": "2026-04-16T13:08:53.439072Z",
      "apogee_km": 476.3435730049641,
      "perigee_km": 474.07922669365416,
      "latitude_deg": -4.1335253352610866e-05,
      "longitude_deg": -1.0225691259533933,
      "height_km": 476.57304658814786,
      "semi_major_axis_km": 6853.348399849308,
      "eccentricity": 0.0001652,
      "inclination_deg": 53.1593,
      "raan_deg": 40.8941,
      "arg_perigee_deg": 114.193,
      "mean_anomaly_deg": 245.9243,
      "mean_motion_rev_day": 15.30201229
    }
  ]
}